CSS (TIANHE)            
1 48274U 21035A   23281.78749541  .00063396  00000+0  64441-3 0  9995
2 48274  41.4725 184.3459 0011118 216.1578 143.8511 15.64173852139598
